ONEWEB-0240             
1 48785U 21045U   24088.41185576 -.00000044  00000+0 -15018-3 0  9990
2 48785  87.8989  60.5196 0001465  88.2338 271.8960 13.15548176137801
ONEWEB-0246             
1 48786U 21045V   24088.48235137 -.00000055  00000+0 -18069-3 0  9998
2 48786  87.8990  60.5086 0001880  77.7890 282.3450 13.15549858137684
ONEWEB-0210             
1 48787U 21045W   24088.45701278  .00000105  00000+0  24411-3 0  9992
2 48787  87.8989  60.5200 0001859  61.7944 298.3374 13.15549027137725
ONEWEB-0214             
1 48788U 21045X   24088.46652092  .00000019  00000+0  17356-4 0  9998
2 48788  87.8990  60.5067 0001943  62.7230 297.4098 13.15548140137696
ONEWEB-0221             
1 48789U 21045Y   24088.85313293  .00000025  00000+0  31387-4 0  9996
2 48789  87.8993  60.4452 0001617  81.9512 278.1802 13.15549742138971
ONEWEB-0213             
1 48790U 21045Z   24088.46175377  .00000105  00000+0  24591-3 0  9991
2 48790  87.8991  60.5385 0001511  77.1052 283.0247 13.15549931137849
ONEWEB-0212             
1 48791U 21045AA  24088.43879296  .00000266  00000+0  67311-3 0  9995
2 48791  87.8990  60.5242 0001953  86.3880 273.7473 13.15548598137836
ONEWEB-0227             
1 48792U 21045AB  24088.43799402 -.00000042  00000+0 -14535-3 0  9990
2 48792  87.8988  60.5408 0001802  84.3694 275.7642 13.15548720137783
